start=new Date('2021-10-26T00:00:00.000Z').valueOf();
sats=[{"RCS_SIZE":"LARGE","MEAN_MOTION_DOT":"0.00001905","MEAN_ELEMENT_THEORY":"SGP4","ARG_OF_PERICENTER":"47.9754","ELEMENT_SET_NO":"999","SITE":"AFETR","DECAY_DATE":null,"EPHEMERIS_TYPE":"0","APOAPSIS":"548.615","FILE":"3183285","TLE_LINE2":"2 46748  53.0548 287.7488 0002067  47.9754 312.1411 15.06409739 56098","COUNTRY_CODE":"US","OBJECT_NAME":"STARLINK-1910","SEMIMAJOR_AXIS":"6925.319","PERIOD":"95.592","MEAN_MOTION":"15.06409739","ECCENTRICITY":"0.00020670","REV_AT_EPOCH":"5609","GP_ID":"188119050","BSTAR":"0.00014670000000","INCLINATION":"53.0548","TLE_LINE1":"1 46748U 20074K   21298.37670334  .00001905  00000-0  14670-3 0  9993","MEAN_ANOMALY":"312.1411","OBJECT_TYPE":"PAYLOAD","NORAD_CAT_ID":"46748","REF_FRAME":"TEME","PERIAPSIS":"545.752","CLASSIFICATION_TYPE":"U","LAUNCH_DATE":"2020-10-24","MEAN_MOTION_DDOT":"0.0000000000000","TIME_SYSTEM":"UTC","CENTER_NAME":"EARTH","OBJECT_ID":"2020-074K","RA_OF_ASC_NODE":"287.7488","EPOCH":"2021-10-25T09:02:27.168576"},{"MEAN_ANOMALY":"295.1117","OBJECT_TYPE":"PAYLOAD","NORAD_CAT_ID":"46749","TLE_LINE1":"1 46749U 20074L   21298.25138093 -.00000371  00000-0 -59811-5 0  9998","INCLINATION":"53.0551","MEAN_MOTION_DDOT":"0.0000000000000","LAUNCH_DATE":"2020-10-24","TIME_SYSTEM":"UTC","CLASSIFICATION_TYPE":"U","PERIAPSIS":"546.219","REF_FRAME":"TEME","ECCENTRICITY":"0.00014450","MEAN_MOTION":"15.06398068","PERIOD":"95.592","BSTAR":"-0.00000598110000","GP_ID":"188144724","REV_AT_EPOCH":"5605","EPOCH":"2021-10-25T06:01:59.312352","CENTER_NAME":"EARTH","OBJECT_ID":"2020-074L","RA_OF_ASC_NODE":"288.3072","ARG_OF_PERICENTER":"65.0022","RCS_SIZE":"LARGE","MEAN_MOTION_DOT":"-0.00000371","MEAN_ELEMENT_THEORY":"SGP4","ELEMENT_SET_NO":"999","FILE":"3183453","SEMIMAJOR_AXIS":"6925.354","OBJECT_NAME":"STARLINK-1911","COUNTRY_CODE":"US","TLE_LINE2":"2 46749  53.0551 288.3072 0001445  65.0022 295.1117 15.06398068 56058","DECAY_DATE":null,"SITE":"AFETR","EPHEMERIS_TYPE":"0","APOAPSIS":"548.220"},{"ELEMENT_SET_NO":"999","ARG_OF_PERICENTER":"67.0910","MEAN_MOTION_DOT":"-0.00001549","RCS_SIZE":"LARGE","MEAN_ELEMENT_THEORY":"SGP4","APOAPSIS":"548.402","EPHEMERIS_TYPE":"0","DECAY_DATE":null,"SITE":"AFETR","SEMIMAJOR_AXIS":"6925.313","OBJECT_NAME":"STARLINK-1920","COUNTRY_CODE":"US","TLE_LINE2":"2 46751  53.0543 287.7355 0001767  67.0910 293.0265 15.06411609 56085","FILE":"3183314","BSTAR":"-0.00008506700000","GP_ID":"188119397","REV_AT_EPOCH":"5608","ECCENTRICITY":"0.00017670","MEAN_MOTION":"15.06411609","PERIOD":"95.591","LAUNCH_DATE":"2020-10-24","TIME_SYSTEM":"UTC","MEAN_MOTION_DDOT":"0.0000000000000","CLASSIFICATION_TYPE":"U","PERIAPSIS":"545.954","REF_FRAME":"TEME","OBJECT_TYPE":"PAYLOAD","MEAN_ANOMALY":"293.0265","NORAD_CAT_ID":"46751","TLE_LINE1":"1 46751U 20074N   21298.38038049 -.00001549  00000-0 -85067-4 0  9994","INCLINATION":"53.0543","OBJECT_ID":"2020-074N","RA_OF_ASC_NODE":"287.7355","CENTER_NAME":"EARTH","EPOCH":"2021-10-25T09:07:44.874336"},{"ELEMENT_SET_NO":"999","ARG_OF_PERICENTER":"37.6341","MEAN_MOTION_DOT":"0.00001699","RCS_SIZE":"LARGE","MEAN_ELEMENT_THEORY":"SGP4","EPHEMERIS_TYPE":"0","APOAPSIS":"548.159","DECAY_DATE":null,"SITE":"AFETR","SEMIMAJOR_AXIS":"6925.350","OBJECT_NAME":"STARLINK-1921","COUNTRY_CODE":"US","TLE_LINE2":"2 46752  53.0534 288.2859 0001362  37.6341 322.4743 15.06399375 56053","FILE":"3183453","BSTAR":"0.00013290000000","GP_ID":"188143223","REV_AT_EPOCH":"5605","ECCENTRICITY":"0.00013620","MEAN_MOTION":"15.06399375","PERIOD":"95.592","LAUNCH_DATE":"2020-10-24","MEAN_MOTION_DDOT":"0.0000000000000","TIME_SYSTEM":"UTC","CLASSIFICATION_TYPE":"U","PERIAPSIS":"546.272","REF_FRAME":"TEME","NORAD_CAT_ID":"46752","OBJECT_TYPE":"PAYLOAD","MEAN_ANOMALY":"322.4743","TLE_LINE1":"1 46752U 20074P   21298.25874400  .00001699  00000-0  13290-3 0  9992","INCLINATION":"53.0534","OBJECT_ID":"2020-074P","RA_OF_ASC_NODE":"288.2859","CENTER_NAME":"EARTH","EPOCH":"2021-10-25T06:12:35.481600"},{"PERIOD":"95.592","MEAN_MOTION":"15.06401398","ECCENTRICITY":"0.00015340","REV_AT_EPOCH":"5605","GP_ID":"188143473","BSTAR":"0.00012562000000","INCLINATION":"53.0542","TLE_LINE1":"1 46753U 20074Q   21298.22558207  .00001590  00000-0  12562-3 0  9995","NORAD_CAT_ID":"46753","OBJECT_TYPE":"PAYLOAD","MEAN_ANOMALY":"286.9886","REF_FRAME":"TEME","PERIAPSIS":"546.147","CLASSIFICATION_TYPE":"U","LAUNCH_DATE":"2020-10-24","TIME_SYSTEM":"UTC","MEAN_MOTION_DDOT":"0.0000000000000","CENTER_NAME":"EARTH","RA_OF_ASC_NODE":"288.4199","OBJECT_ID":"2020-074Q","EPOCH":"2021-10-25T05:24:50.290848","MEAN_MOTION_DOT":"0.00001590","RCS_SIZE":"LARGE","MEAN_ELEMENT_THEORY":"SGP4","ARG_OF_PERICENTER":"73.1271","ELEMENT_SET_NO":"999","SITE":"AFETR","DECAY_DATE":null,"APOAPSIS":"548.272","EPHEMERIS_TYPE":"0","FILE":"3183453","TLE_LINE2":"2 46753  53.0542 288.4199 0001534  73.1271 286.9886 15.06401398 56051","COUNTRY_CODE":"US","OBJECT_NAME":"STARLINK-1922","SEMIMAJOR_AXIS":"6925.344"},{"ECCENTRICITY":"0.00015350","PERIOD":"95.592","MEAN_MOTION":"15.06399506","GP_ID":"188119464","BSTAR":"-0.00002380900000","REV_AT_EPOCH":"5607","MEAN_ANOMALY":"287.9762","OBJECT_TYPE":"PAYLOAD","NORAD_CAT_ID":"46754","INCLINATION":"53.0538","TLE_LINE1":"1 46754U 20074R   21298.29929974 -.00000636  00000-0 -23809-4 0  9995","CLASSIFICATION_TYPE":"U","LAUNCH_DATE":"2020-10-24","TIME_SYSTEM":"UTC","MEAN_MOTION_DDOT":"0.0000000000000","REF_FRAME":"TEME","PERIAPSIS":"546.152","CENTER_NAME":"EARTH","RA_OF_ASC_NODE":"288.0954","OBJECT_ID":"2020-074R","EPOCH":"2021-10-25T07:10:59.497536","ARG_OF_PERICENTER":"72.1394","MEAN_ELEMENT_THEORY":"SGP4","RCS_SIZE":"LARGE","MEAN_MOTION_DOT":"-0.00000636","ELEMENT_SET_NO":"999","DECAY_DATE":null,"SITE":"AFETR","APOAPSIS":"548.278","EPHEMERIS_TYPE":"0","FILE":"3183317","OBJECT_NAME":"STARLINK-1923","SEMIMAJOR_AXIS":"6925.350","TLE_LINE2":"2 46754  53.0538 288.0954 0001535  72.1394 287.9762 15.06399506 56071","COUNTRY_CODE":"US"},{"ARG_OF_PERICENTER":"81.4606","RCS_SIZE":"LARGE","MEAN_MOTION_DOT":"0.00002071","MEAN_ELEMENT_THEORY":"SGP4","ELEMENT_SET_NO":"999","DECAY_DATE":null,"SITE":"AFETR","APOAPSIS":"548.229","EPHEMERIS_TYPE":"0","FILE":"3183453","SEMIMAJOR_AXIS":"6925.355","OBJECT_NAME":"STARLINK-1924","COUNTRY_CODE":"US","TLE_LINE2":"2 46755  53.0537 293.3759 0001457  81.4606 278.6548 15.06397815 55984","ECCENTRICITY":"0.00014570","PERIOD":"95.592","MEAN_MOTION":"15.06397815","BSTAR":"0.00015791000000","GP_ID":"188144975","REV_AT_EPOCH":"5598","MEAN_ANOMALY":"278.6548","OBJECT_TYPE":"PAYLOAD","NORAD_CAT_ID":"46755","TLE_LINE1":"1 46755U 20074S   21298.23801726  .00002071  00000-0  15791-3 0  9997","INCLINATION":"53.0537","TIME_SYSTEM":"UTC","LAUNCH_DATE":"2020-10-24","MEAN_MOTION_DDOT":"0.0000000000000","CLASSIFICATION_TYPE":"U","PERIAPSIS":"546.211","REF_FRAME":"TEME","CENTER_NAME":"EARTH","RA_OF_ASC_NODE":"293.3759","OBJECT_ID":"2020-074S","EPOCH":"2021-10-25T05:42:44.691264"},{"ARG_OF_PERICENTER":"76.1305","MEAN_MOTION_DOT":"0.00006328","RCS_SIZE":"LARGE","MEAN_ELEMENT_THEORY":"SGP4","ELEMENT_SET_NO":"999","DECAY_DATE":null,"SITE":"AFETR","EPHEMERIS_TYPE":"0","APOAPSIS":"548.419","FILE":"3183453","SEMIMAJOR_AXIS":"6925.437","OBJECT_NAME":"STARLINK-1925","COUNTRY_CODE":"US","TLE_LINE2":"2 46756  53.0541 293.0981 0001614  76.1305 283.9864 15.06371299 55995","ECCENTRICITY":"0.00016140","MEAN_MOTION":"15.06371299","PERIOD":"95.594","BSTAR":"0.00044364000000","GP_ID":"188143723","REV_AT_EPOCH":"5599","OBJECT_TYPE":"PAYLOAD","MEAN_ANOMALY":"283.9864","NORAD_CAT_ID":"46756","TLE_LINE1":"1 46756U 20074T   21298.29605442  .00006328  00000-0  44364-3 0  9998","INCLINATION":"53.0541","TIME_SYSTEM":"UTC","LAUNCH_DATE":"2020-10-24","MEAN_MOTION_DDOT":"0.0000000000000","CLASSIFICATION_TYPE":"U","PERIAPSIS":"546.184","REF_FRAME":"TEME","CENTER_NAME":"EARTH","OBJECT_ID":"2020-074T","RA_OF_ASC_NODE":"293.0981","EPOCH":"2021-10-25T07:06:19.101888"},{"COUNTRY_CODE":"US","TLE_LINE2":"2 46757  53.0549 292.3909 0001393  65.0635 295.0498 15.06407377 56022","SEMIMAJOR_AXIS":"6925.326","OBJECT_NAME":"STARLINK-1926","FILE":"3183662","EPHEMERIS_TYPE":"0","APOAPSIS":"548.156","SITE":"AFETR","DECAY_DATE":null,"ELEMENT_SET_NO":"999","RCS_SIZE":"LARGE","MEAN_MOTION_DOT":"0.00001897","MEAN_ELEMENT_THEORY":"SGP4","ARG_OF_PERICENTER":"65.0635","EPOCH":"2021-10-25T10:59:52.132992","OBJECT_ID":"2020-074U","RA_OF_ASC_NODE":"292.3909","CENTER_NAME":"EARTH","PERIAPSIS":"546.226","REF_FRAME":"TEME","LAUNCH_DATE":"2020-10-24","MEAN_MOTION_DDOT":"0.0000000000000","TIME_SYSTEM":"UTC","CLASSIFICATION_TYPE":"U","TLE_LINE1":"1 46757U 20074U   21298.45824228  .00001897  00000-0  14616-3 0  9995","INCLINATION":"53.0549","OBJECT_TYPE":"PAYLOAD","NORAD_CAT_ID":"46757","MEAN_ANOMALY":"295.0498","REV_AT_EPOCH":"5602","BSTAR":"0.00014616000000","GP_ID":"188150340","PERIOD":"95.592","MEAN_MOTION":"15.06407377","ECCENTRICITY":"0.00013930"},{"INCLINATION":"53.0545","TLE_LINE1":"1 46758U 20074V   21298.28596912  .00003539  00000-0  25640-3 0  9997","NORAD_CAT_ID":"46758","OBJECT_TYPE":"PAYLOAD","MEAN_ANOMALY":"285.4597","REF_FRAME":"TEME","PERIAPSIS":"546.117","CLASSIFICATION_TYPE":"U","LAUNCH_DATE":"2020-10-24","MEAN_MOTION_DDOT":"0.0000000000000","TIME_SYSTEM":"UTC","MEAN_MOTION":"15.06395717","PERIOD":"95.592","ECCENTRICITY":"0.00016020","REV_AT_EPOCH":"5599","GP_ID":"188144725","BSTAR":"0.00025640000000","EPOCH":"2021-10-25T06:51:47.731968","CENTER_NAME":"EARTH","OBJECT_ID":"2020-074V","RA_OF_ASC_NODE":"293.1624","MEAN_MOTION_DOT":"0.00003539","RCS_SIZE":"LARGE","MEAN_ELEMENT_THEORY":"SGP4","ARG_OF_PERICENTER":"74.6569","ELEMENT_SET_NO":"999","FILE":"3183453","TLE_LINE2":"2 46758  53.0545 293.1624 0001602  74.6569 285.4597 15.06395717 55999","COUNTRY_CODE":"US","OBJECT_NAME":"STARLINK-1928","SEMIMAJOR_AXIS":"6925.362","SITE":"AFETR","DECAY_DATE":null,"APOAPSIS":"548.336","EPHEMERIS_TYPE":"0"}];
